METHANESAT              
1 59101U 24043D   25225.92558964  .00001844  00000+0  17108-3 0  9999
2 59101  97.8074 351.7389 0010064 322.3001  37.7513 14.95639883 78682
GOSAT-GW (IBUKI GW)     
1 64694U 25141A   25225.89773777  .00000794  00000+0  14835-3 0  9996
2 64694  98.0261 163.7219 0001410  83.9011 276.2355 14.67571634  6778
GHGSAT-C1               
1 46278U 20061G   25225.88100461  .00017322  00000+0  28564-3 0  9992
2 46278  97.2455 300.0330 0003615 100.6856 259.4804 15.52351801275536
GHGSAT-C12              
1 64529U 25135B   25225.85876486  .00006642  00000+0  33712-3 0  9996
2 64529  97.4522 339.5264 0005994 151.0840 209.0727 15.17225477  8179
GHGSAT-C13              
1 64548U 25135W   25225.82169043  .00002605  00000+0  13069-3 0  9996
2 64548  97.4544 339.5895 0002804  97.7909 262.3644 15.18203914  8176
GHGSAT-C2               
1 47509U 21006DA  25225.62855216  .00005217  00000+0  16619-3 0  9995
2 47509  97.2632 273.2475 0005888 176.6330 183.4954 15.32970314252650
GHGSAT-C3               
1 52737U 22057F   25225.89395582  .00006096  00000+0  21903-3 0  9993
2 52737  97.6201 357.0783 0007832 124.1987 235.9996 15.29013216178498
GHGSAT-C4               
1 52746U 22057Q   25225.91229538  .00006229  00000+0  22374-3 0  9994
2 52746  97.6130 356.2339 0008219 111.9294 248.2820 15.29005949178501
GHGSAT-C5               
1 52744U 22057N   25225.92875413  .00006128  00000+0  22023-3 0  9991
2 52744  97.6290 358.3312 0008894 121.3034 238.9077 15.28992658178507
GHGSAT-C6               
1 56204U 23054AC  25225.86579732  .00011239  00000+0  25811-3 0  9999
2 56204  97.3236 127.2164 0011216  84.5224 275.7303 15.42799052130913
GHGSAT-C7               
1 56209U 23054AH  25225.95317395  .00008456  00000+0  20044-3 0  9999
2 56209  97.3198 126.8180 0011095  77.7240 282.5248 15.41932022130925
GHGSAT-C8               
1 56186U 23054J   25225.97005226  .00010927  00000+0  25104-3 0  9990
2 56186  97.3205 126.7986 0008613 100.3491 259.8728 15.42821848130917
SENTINEL-5P             
1 42969U 17064A   25225.81383303  .00000049  00000+0  44186-4 0  9992
2 42969  98.7593 165.5935 0001264  78.1269 282.0049 14.19537946405950
ENMAP                   
1 52159U 22033C   25225.85398150  .00000432  00000+0  71724-4 0  9990
2 52159  97.9769 307.5145 0001409  87.9280 272.2090 14.74937963181357
PRISMA                  
1 44072U 19015A   25225.94321451  .00000827  00000+0  10651-3 0  9990
2 44072  97.8722 300.1266 0001330 101.5188 258.6176 14.83675851346492
SENTINEL-2A             
1 40697U 15028A   25225.66220237  .00000108  00000+0  57680-4 0  9994
2 40697  98.5664 299.9242 0001176  96.3963 263.7354 14.30826489529757
SENTINEL-2B             
1 42063U 17013A   25225.93481032  .00000105  00000+0  56678-4 0  9994
2 42063  98.5667 300.1355 0001261  95.8035 264.3292 14.30816795440702
SENTINEL-2C             
1 60989U 24157A   25225.83011408  .00000096  00000+0  53384-4 0  9993
2 60989  98.5656 300.1044 0001290  95.7613 264.3717 14.30815851 49030
LANDSAT 8               
1 39084U 13008A   25225.93518726  .00000330  00000+0  83304-4 0  9990
2 39084  98.2219 295.6904 0001221  90.8808 269.2530 14.57106224653150
LANDSAT 9               
1 49260U 21088A   25225.90087331  .00000343  00000+0  86120-4 0  9997
2 49260  98.2240 295.6621 0001152  92.7233 267.4097 14.57102349206250
TANAGER-1               
1 60507U 24149AR  25225.47833519  .00019860  00000+0  44039-3 0  9990
2 60507  97.3977 310.6332 0008299 228.0240 132.0301 15.43745727 55562
